[{"OBJECT_NAME":"STARLINK-3528","OBJECT_ID":"2022-016A","EPOCH":"2026-03-09T22:37:44.894208","MEAN_MOTION":15.08840637,"ECCENTRICITY":0.00012872,"INCLINATION":53.2189,"RA_OF_ASC_NODE":327.9607,"ARG_OF_PERICENTER":95.9714,"MEAN_ANOMALY":264.1425,"EPHEMERIS_TYPE":0,"CLASSIFICATION_TYPE":"U","NORAD_CAT_ID":51714,"ELEMENT_SET_NO":999,"REV_AT_EPOCH":22346,"BSTAR":-3.6292982e-5,"MEAN_MOTION_DOT":-8.65e-6,"MEAN_MOTION_DDOT":0},{"OBJECT_NAME":"OBJECT A","OBJECT_ID":"2025-292A","EPOCH":"2026-03-09T21:45:44.016480","MEAN_MOTION":15.05451809,"ECCENTRICITY":0.00146319,"INCLINATION":97.6364,"RA_OF_ASC_NODE":145.598,"ARG_OF_PERICENTER":341.1551,"MEAN_ANOMALY":18.9132,"EPHEMERIS_TYPE":0,"CLASSIFICATION_TYPE":"U","NORAD_CAT_ID":66993,"ELEMENT_SET_NO":999,"REV_AT_EPOCH":1350,"BSTAR":0.00038878249,"MEAN_MOTION_DOT":5.535e-5,"MEAN_MOTION_DDOT":0}]
